{
  "type": "FeatureCollection",
  "features": [
    {
      "type": "Feature",
      "properties": {
        "norad_id": 35987,
        "name": "COSMOS 2251 DEB",
        "group": "cosmos-2251-debris",
        "lat": 21.78745617555167,
        "lon": -19.323054707663765,
        "alt_km": 740.8923872687001,
        "timestamp": "2025-12-08T17:43:05.334927+00:00",
        "meta_object_name": "COSMOS 2251 DEB",
        "meta_object_id": "1993-036AWD",
        "meta_epoch": "2025-12-08T05:58:00.511392",
        "meta_mean_motion": 14.4308304,
        "meta_eccentricity": 0.00458991,
        "meta_inclination": 73.9997,
        "meta_ra_of_asc_node": 335.0019,
        "meta_arg_of_pericenter": 102.0348,
        "meta_mean_anomaly": 258.5958,
        "meta_ephemeris_type": 0,
        "meta_classification_type": "U",
        "meta_norad_cat_id": 35987,
        "meta_element_set_no": 999,
        "meta_rev_at_epoch": 61000,
        "meta_bstar": 0.0014339453,
        "meta_mean_motion_dot": 4.848e-05,
        "meta_mean_motion_ddot": 0,
        "tle_line1": "1 35987U 93036AWD 25342.24861703  .00004848  00000+0  14339-2 0  9995",
        "tle_line2": "2 35987  73.9997 335.0019 0045899 102.0348 258.5958 14.43083040610008"
      },
      "geometry": {
        "type": "Point",
        "coordinates": [
          -19.323054707663765,
          21.78745617555167
        ]
      }
    },
    {
      "type": "Feature",
      "properties": {
        "norad_id": 35989,
        "name": "COSMOS 2251 DEB",
        "group": "cosmos-2251-debris",
        "lat": 23.922775961812878,
        "lon": 103.89176474260528,
        "alt_km": 779.2615500178081,
        "timestamp": "2025-12-08T17:43:05.334937+00:00",
        "meta_object_name": "COSMOS 2251 DEB",
        "meta_object_id": "1993-036AWF",
        "meta_epoch": "2025-12-06T04:51:17.856864",
        "meta_mean_motion": 14.37086268,
        "meta_eccentricity": 0.00218316,
        "meta_inclination": 74.0371,
        "meta_ra_of_asc_node": 295.8482,
        "meta_arg_of_pericenter": 19.4894,
        "meta_mean_anomaly": 340.7089,
        "meta_ephemeris_type": 0,
        "meta_classification_type": "U",
        "meta_norad_cat_id": 35989,
        "meta_element_set_no": 999,
        "meta_rev_at_epoch": 87085,
        "meta_bstar": 0.00043011654,
        "meta_mean_motion_dot": 1.255e-05,
        "meta_mean_motion_ddot": 0,
        "tle_line1": "1 35989U 93036AWF 25340.20229001  .00001255  00000+0  43012-3 0  9990",
        "tle_line2": "2 35989  74.0371 295.8482 0021831  19.4894 340.7089 14.37086268870850"
      },
      "geometry": {
        "type": "Point",
        "coordinates": [
          103.89176474260528,
          23.922775961812878
        ]
      }
    },
    {
      "type": "Feature",
      "properties": {
        "norad_id": 35993,
        "name": "COSMOS 2251 DEB",
        "group": "cosmos-2251-debris",
        "lat": -11.875961074762259,
        "lon": -22.945809715286078,
        "alt_km": 700.8735714316272,
        "timestamp": "2025-12-08T17:43:05.334948+00:00",
        "meta_object_name": "COSMOS 2251 DEB",
        "meta_object_id": "1993-036AWK",
        "meta_epoch": "2025-12-06T18:15:16.240032",
        "meta_mean_motion": 14.6523351,
        "meta_eccentricity": 0.00292405,
        "meta_inclination": 74.0149,
        "meta_ra_of_asc_node": 344.3189,
        "meta_arg_of_pericenter": 175.7917,
        "meta_mean_anomaly": 184.3503,
        "meta_ephemeris_type": 0,
        "meta_classification_type": "U",
        "meta_norad_cat_id": 35993,
        "meta_element_set_no": 999,
        "meta_rev_at_epoch": 60355,
        "meta_bstar": 0.0012689745,
        "meta_mean_motion_dot": 6.854e-05,
        "meta_mean_motion_ddot": 0,
        "tle_line1": "1 35993U 93036AWK 25340.76060463  .00006854  00000+0  12690-2 0  9998",
        "tle_line2": "2 35993  74.0149 344.3189 0029240 175.7917 184.3503 14.65233510603555"
      },
      "geometry": {
        "type": "Point",
        "coordinates": [
          -22.945809715286078,
          -11.875961074762259
        ]
      }
    },
    {
      "type": "Feature",
      "properties": {
        "norad_id": 35996,
        "name": "COSMOS 2251 DEB",
        "group": "cosmos-2251-debris",
        "lat": 16.816742409222122,
        "lon": -73.2895141346322,
        "alt_km": 493.00017194166503,
        "timestamp": "2025-12-08T17:43:05.334958+00:00",
        "meta_object_name": "COSMOS 2251 DEB",
        "meta_object_id": "1993-036AWN",
        "meta_epoch": "2025-12-06T15:40:07.668192",
        "meta_mean_motion": 15.08900528,
        "meta_eccentricity": 0.00890114,
        "meta_inclination": 74.0155,
        "meta_ra_of_asc_node": 115.9821,
        "meta_arg_of_pericenter": 208.3907,
        "meta_mean_anomaly": 151.2421,
        "meta_ephemeris_type": 0,
        "meta_classification_type": "U",
        "meta_norad_cat_id": 35996,
        "meta_element_set_no": 999,
        "meta_rev_at_epoch": 72234,
        "meta_bstar": 0.001269926,
        "meta_mean_motion_dot": 0.00021998,
        "meta_mean_motion_ddot": 0,
        "tle_line1": "1 35996U 93036AWN 25340.65286653  .00021998  00000+0  12699-2 0  9995",
        "tle_line2": "2 35996  74.0155 115.9821 0089011 208.3907 151.2421 15.08900528722343"
      },
      "geometry": {
        "type": "Point",
        "coordinates": [
          -73.2895141346322,
          16.816742409222122
        ]
      }
    },
    {
      "type": "Feature",
      "properties": {
        "norad_id": 35997,
        "name": "COSMOS 2251 DEB",
        "group": "cosmos-2251-debris",
        "lat": 5.030566076364971,
        "lon": -163.73325401264785,
        "alt_km": 724.5894788937348,
        "timestamp": "2025-12-08T17:43:05.334968+00:00",
        "meta_object_name": "COSMOS 2251 DEB",
        "meta_object_id": "1993-036AWP",
        "meta_epoch": "2025-12-02T07:50:00.553056",
        "meta_mean_motion": 14.51236016,
        "meta_eccentricity": 0.00159085,
        "meta_inclination": 74.0439,
        "meta_ra_of_asc_node": 206.8774,
        "meta_arg_of_pericenter": 283.0639,
        "meta_mean_anomaly": 76.8746,
        "meta_ephemeris_type": 0,
        "meta_classification_type": "U",
        "meta_norad_cat_id": 35997,
        "meta_element_set_no": 999,
        "meta_rev_at_epoch": 70733,
        "meta_bstar": 0.00076938672,
        "meta_mean_motion_dot": 3.037e-05,
        "meta_mean_motion_ddot": 0,
        "tle_line1": "1 35997U 93036AWP 25336.32639529  .00003037  00000+0  76939-3 0  9991",
        "tle_line2": "2 35997  74.0439 206.8774 0015908 283.0639  76.8746 14.51236016707337"
      },
      "geometry": {
        "type": "Point",
        "coordinates": [
          -163.73325401264785,
          5.030566076364971
        ]
      }
    },
    {
      "type": "Feature",
      "properties": {
        "norad_id": 36005,
        "name": "COSMOS 2251 DEB",
        "group": "cosmos-2251-debris",
        "lat": 73.71341278014198,
        "lon": -157.14046802893577,
        "alt_km": 763.6150976646741,
        "timestamp": "2025-12-08T17:43:05.334979+00:00",
        "meta_object_name": "COSMOS 2251 DEB",
        "meta_object_id": "1993-036AWX",
        "meta_epoch": "2025-12-07T18:03:37.308096",
        "meta_mean_motion": 14.47345623,
        "meta_eccentricity": 0.00620427,
        "meta_inclination": 74.0263,
        "meta_ra_of_asc_node": 103.3364,
        "meta_arg_of_pericenter": 241.7009,
        "meta_mean_anomaly": 117.7882,
        "meta_ephemeris_type": 0,
        "meta_classification_type": "U",
        "meta_norad_cat_id": 36005,
        "meta_element_set_no": 999,
        "meta_rev_at_epoch": 87512,
        "meta_bstar": 0.00039974539,
        "meta_mean_motion_dot": 1.471e-05,
        "meta_mean_motion_ddot": 0,
        "tle_line1": "1 36005U 93036AWX 25341.75251514  .00001471  00000+0  39975-3 0  9998",
        "tle_line2": "2 36005  74.0263 103.3364 0062042 241.7009 117.7882 14.47345623875121"
      },
      "geometry": {
        "type": "Point",
        "coordinates": [
          -157.14046802893577,
          73.71341278014198
        ]
      }
    },
    {
      "type": "Feature",
      "properties": {
        "norad_id": 36045,
        "name": "COSMOS 2251 DEB",
        "group": "cosmos-2251-debris",
        "lat": -7.107450020999808,
        "lon": -110.94323225992524,
        "alt_km": 673.9429066366993,
        "timestamp": "2025-12-08T17:43:05.334990+00:00",
        "meta_object_name": "COSMOS 2251 DEB",
        "meta_object_id": "1993-036AXG",
        "meta_epoch": "2025-12-06T12:35:46.842144",
        "meta_mean_motion": 14.69624154,
        "meta_eccentricity": 0.00486216,
        "meta_inclination": 73.7645,
        "meta_ra_of_asc_node": 71.3331,
        "meta_arg_of_pericenter": 87.3165,
        "meta_mean_anomaly": 273.3569,
        "meta_ephemeris_type": 0,
        "meta_classification_type": "U",
        "meta_norad_cat_id": 36045,
        "meta_element_set_no": 999,
        "meta_rev_at_epoch": 8297,
        "meta_bstar": 0.0044051955,
        "meta_mean_motion_dot": 0.00026747,
        "meta_mean_motion_ddot": 0,
        "tle_line1": "1 36045U 93036AXG 25340.52484771  .00026747  00000+0  44052-2 0  9993",
        "tle_line2": "2 36045  73.7645  71.3331 0048621  87.3165 273.3569 14.69624154 82974"
      },
      "geometry": {
        "type": "Point",
        "coordinates": [
          -110.94323225992524,
          -7.107450020999808
        ]
      }
    }
  ]
}